COLIBRI-S (RS67S)
1 61746U 24199M   26185.19127695  .00032089  00000-0  60405-3 0  9991
2 61746  97.2965  59.2055 0007571 202.4087 157.6834 15.48448465140045
POLYTECH UNIVERSE-4 (RS71S)
1 61747U 24199N   26185.13958075  .00024001  00000-0  48921-3 0  9994
2 61747  97.2970  58.3774 0008087 203.5615 156.5265 15.46192921139980
SITRO-AIS-44
1 61748U 24199P   26185.13119273  .00127711  00000-0  99461-3 0  9991
2 61748  97.2836  64.9610 0005790 167.3192 192.8218 15.71314174140447
VIZARD-ION (RS68S)
1 61749U 24199Q   26185.18584549  .00050485  00000-0  71478-3 0  9990
2 61749  97.2953  61.7802 0006151 186.7869 173.3304 15.56326474140218
MTUSI-1
1 61750U 24199R   26185.18653050  .00051680  00000-0  72686-3 0  9996
2 61750  97.2924  61.2298 0005794 198.3242 161.7805 15.56503859140196
VLADIVOSTOK-1
1 61751U 24199S   26185.14773029  .00011954  00000-0  33076-3 0  9992
2 61751  97.2969  54.4775 0007907 239.1575 120.8892 15.37121558139743
SITRO-AIS-14
1 61752U 24199T   26185.15777807  .00003666  00000-0  31693-3 0  9996
2 61752  97.3219  23.5074 0006528  24.8516 335.3021 14.97752050137662
HORS-3 (RS81S)
1 61753U 24199U   26185.13663731  .00051514  00000-0  73296-3 0  9995
2 61753  97.2946  61.3263 0005594 192.3091 167.8028 15.56191642140197
HORS-4 (RS82S)
1 61754U 24199V   26185.17207815  .00074044  00000-0  86449-3 0  9994
2 61754  97.2886  62.6789 0005620 181.1012 179.0234 15.61365896140292
SITRO-AIS-43
1 61755U 24199W   26184.94158331  .00129938  00000-0  98373-3 0  9999
2 61755  97.2858  64.9503 0005728 162.4869 197.6593 15.71984109140426
SITRO-AIS-42
1 61756U 24199X   26185.17934839  .00110286  00000-0  89006-3 0  9990
2 61756  97.2856  65.2334 0003577 202.5509 157.5597 15.70522999140465
SITRO-AIS-20
1 61758U 24199Z   26185.13589656  .00002885  00000-0  24859-3 0  9991
2 61758  97.3215  23.6603 0006464  21.1750 338.9739 14.98028974137670
SITRO-AIS-19
1 61759U 24199AA  26185.13962974  .00003147  00000-0  27099-3 0  9991
2 61759  97.3213  23.6584 0006323  22.6295 337.5206 14.98002481137670
SITRO-AIS-41
1 61760U 24199AB  26185.16544530  .00128527  00000-0  10365-2 0  9997
2 61760  97.2881  64.8739 0005493 162.7232 197.4218 15.70474302140435
NORBY-3
1 61761U 24199AC  26185.16563908  .00055300  00000-0  72457-3 0  9997
2 61761  97.2882  62.0705 0005535 179.8020 180.3240 15.58396175140254
SIT-HSE
1 61763U 24199AE  26185.18492900  .00048771  00000-0  75524-3 0  9996
2 61763  97.2943  61.7306 0004441 187.1616 172.9576 15.53890326140223
SIT-2086
1 61764U 24199AF  26185.13549914  .00051302  00000-0  78198-3 0  9994
2 61764  97.2901  61.7430 0006918 178.8777 181.2493 15.54298700137060
HOD-HOD
1 61768U 24199AK  26185.13072508  .00033249  00000-0  58392-3 0  9992
2 61768  97.2933  60.1376 0004664 205.5645 154.5377 15.50443621136961
KOSAR
1 61769U 24199AL  26185.13161136  .00045551  00000-0  67535-3 0  9997
2 61769  97.2907  61.4492 0004092 185.4563 174.6647 15.55103881137056
SITRO-AIS-48
1 61771U 24199AN  26185.17358616  .00064734  00000-0  80687-3 0  9992
2 61771  97.2891  61.4927 0006492 202.9506 157.1462 15.59677876137079
HYPERVIEW-1G (RS66S)
1 61772U 24199AP  26185.18155312  .00253182  00000-0  12608-2 0  9996
2 61772  97.2821  65.8188 0007451 170.1238 190.0179 15.81194057137356
SITRO-AIS-47
1 61773U 24199AQ  26185.07658378  .00077605  00000-0  93627-3 0  9990
2 61773  97.2874  61.6125 0006030 196.7128 163.3932 15.60491625137071
SITRO-AIS-46
1 61774U 24199AR  26185.17717456  .00082167  00000-0  92225-3 0  9997
2 61774  97.2845  62.1698 0005829 196.9969 163.1095 15.62358697137128
CSTP-2.2
1 61775U 24199AS  26185.18938491  .00022093  00000-0  46966-3 0  9996
2 61775  97.2958  57.5727 0013651 209.5243 150.5237 15.44908549136790
SITRO-AIS-40
1 61776U 24199AT  26185.08783195  .00085570  00000-0  94744-3 0  9991
2 61776  97.2856  62.1527 0005660 195.7497 164.3586 15.62700049140268
CSTP-2.1
1 61777U 24199AU  26185.13989323  .00022159  00000-0  45037-3 0  9994
2 61777  97.2958  57.7853 0013862 207.5787 152.4728 15.46223025136808
SITRO-AIS-39
1 61778U 24199AV  26185.16511388  .00064215  00000-0  80456-3 0  9993
2 61778  97.2859  61.3105 0006122 197.8663 162.2380 15.59545474137066
ALTAIR (RS65S)
1 61779U 24199AW  26185.16735663  .00011654  00000-0  31981-3 0  9996
2 61779  97.3002  54.4075 0011012 239.9310 120.0844 15.37353979139723
SITRO-AIS-37
1 61780U 24199AX  26185.15625331  .00076349  00000-0  91140-3 0  9992
2 61780  97.2892  61.7268 0006526 200.0446 160.0556 15.60770791137081
ASRTU-1 (RS64S/BJ2CR/AO-123)
1 61781U 24199AY  26185.17054298  .00009978  00000-0  28694-3 0  9991
2 61781  97.2973  53.6886 0012051 243.8268 116.1737 15.35922419136535
SAMSAT-IONOSPHERE (RS75S)
1 61784U 24199BB  26185.14009322  .00064229  00000-0  81565-3 0  9995
2 61784  97.2911  61.4415 0007756 198.2307 161.8672 15.59175395140201
RTU MIREA-1 (RS51S)
1 61785U 24199BC  26185.18896480  .00092022  00000-0  10033-2 0  9992
2 61785  97.2897  62.4155 0007822 191.5856 168.5224 15.63057795137128
SITRO-AIS-38
1 61786U 24199BD  26185.17735932  .00041579  00000-0  74296-3 0  9999
2 61786  97.2910  59.5812 0007986 212.4202 147.6560 15.49883775136940
2024-199BE (? SWSU-60)
1 61787U 24199BE  26185.18315250  .00011990  00000-0  33502-3 0  9997
2 61787  97.2981  54.0233 0011599 240.9952 119.0130 15.36778426139704
SITRO-AIS-45
1 61788U 24199BF  26185.17905886  .00073886  00000-0  91337-3 0  9999
2 61788  97.2855  61.4133 0006044 197.9567 162.1477 15.59864621137055
SITRO-AIS-17
1 61789U 24199BG  26185.26090806  .00002676  00000-0  23087-3 0  9993
2 61789  97.3227  23.8287 0006910  27.5448 332.6141 14.98041027134597
SITRO-AIS-18
1 61790U 24199BH  26185.14115207  .00003158  00000-0  27195-3 0  9995
2 61790  97.3214  23.6609 0006334  24.4083 335.7439 14.97990582134572
INNOCUBE (TUBSAT-31)
1 62616U 25009H   26184.73572105  .00008433  00000-0  32344-3 0  9995
2 62616  97.3900 264.5561 0004265 271.8610  88.2141 15.26732482 81342
OTP-2
1 63235U 25052AB  26185.16608398  .00009902  00000-0  40848-3 0  9993
2 63235  97.3849  77.3432 0008297 100.4921 259.7252 15.24220509 72450
IONOSFERA-M 03
1 64876U 25155A   26185.27988016  .00000071  00000-0  52157-4 0  9994
2 64876  98.6034 146.7553 0001894 128.7285 231.4062 14.21489431 48837
IONOSFERA-M 04
1 64877U 25155B   26185.31469279  .00000067  00000-0  50089-4 0  9992
2 64877  98.6039 146.7064 0001598 110.0508 250.0842 14.21491796 48833
INNOSAT16 (RS92S7)
1 64878U 25155C   26185.18731602  .00007385  00000-0  29255-3 0  9990
2 64878  97.4577 152.2632 0012218 121.3125 238.9311 15.25642681 83260
GEOSCAN-6 (RS92S6)
1 64879U 25155D   26185.18263422  .00013981  00000-0  47598-3 0  9990
2 64879  97.4569 153.8042 0009865 112.6922 247.5363 15.30479186 83364
GEOSCAN 1 (RS92S1)
1 64880U 25155E   26185.17828842  .00014731  00000-0  49163-3 0  9998
2 64880  97.4565 153.9629 0009822 112.7734 247.4545 15.31110944 83376
239ALFEROV (RS61S)
1 64881U 25155F   26185.18835469  .00019915  00000-0  61739-3 0  9995
2 64881  97.4565 154.5928 0009492 111.7910 248.4343 15.33414732 83410
CSTP-4.3
1 64882U 25155G   26185.17004970  .00011594  00000-0  40357-3 0  9998
2 64882  97.4594 153.7539 0009319 113.7090 246.5129 15.29809110 83358
CSTP-4.2
1 64883U 25155H   26185.17011461  .00011646  00000-0  40549-3 0  9993
2 64883  97.4584 153.7281 0009339 109.5587 250.6663 15.29797469 83350
CSTP-4.4
1 64884U 25155J   26185.16965324  .00011827  00000-0  41127-3 0  9993
2 64884  97.4581 153.7195 0009657 104.8294 255.4017 15.29833795 83357
ASTROLINE-N3
1 64886U 25155L   26185.18547989  .00043783  00000-0  99716-3 0  9993
2 64886  97.4472 156.4485 0009585 103.2821 256.9496 15.42773352 83555
ASTROLINE-N2
1 64888U 25155N   26185.17203337  .00044596  00000-0  10123-2 0  9997
2 64888  97.4479 156.4989 0009475 101.9491 258.2819 15.42869723 83551
GEOSCAN 2 (RS92S2)
1 64890U 25155Q   26185.16902020  .00014313  00000-0  47407-3 0  9994
2 64890  97.4564 154.1127 0009247 102.5276 257.7000 15.31369149 83385
GEOSCAN-5 (RS92S5)
1 64891U 25155R   26185.17388200  .00019397  00000-0  59573-3 0  9998
2 64891  97.4557 154.7222 0008456 115.5334 244.6784 15.33727590 83429
GEOSCAN-4 (RS92S4)
1 64892U 25155S   26185.15632794  .00019337  00000-0  59088-3 0  9992
2 64892  97.4561 154.7579 0008461 115.5094 244.7025 15.33889378 83421
GEOSCAN-3 (RS92S3)
1 64893U 25155T   26185.19976400  .00025205  00000-0  71936-3 0  9999
2 64893  97.4548 155.2817 0008421 115.3782 244.8334 15.35988983 83468
INNOSAT3 (RS92S0)
1 64894U 25155U   26185.15840717  .00054186  00000-0  11397-2 0  9991
2 64894  97.4495 157.0753 0008249 114.7369 245.4739 15.45097082 83582
CSTP-4.1
1 64895U 25155V   26185.16981974  .00011763  00000-0  40932-3 0  9996
2 64895  97.4590 153.7359 0009222 112.8496 247.3719 15.29816034 83347
POLYTECH UNIVERSE-3 (RS46S)
1 57191U 23091AB  26185.20168868  .00006346  00000-0  30298-3 0  9993
2 57191  97.5034 242.8796 0016861  73.0746 287.2336 15.19282399166531
CSTP-1.1
1 57202U 23091AN  26185.20128310  .00006371  00000-0  30501-3 0  9999
2 57202  97.5102 243.9161 0010542  57.4279 302.7972 15.19262394166548
CSTP-1.2
1 57186U 23091W   26185.19031662  .00011687  00000-0  41295-3 0  9999
2 57186  97.5137 251.6209 0018625  37.9876 322.2674 15.29194484167050
MULE-4T
1 67286U 25313AQ  26185.14162016  .00010366  00000-0  42393-3 0  9996
2 67286  97.3927 259.8474 0008008 297.6416  62.4008 15.24504322 28556
SCORPION (RS89S)
1 67293U 25313AX  26184.18098733  .00004271  00000-0  18486-3 0  9995
2 67293  97.3932 258.6938 0009393 295.0406  64.9856 15.22929335 28394
GALAPAGOS-UTE-SWSU
1 67279U 25313AH  26184.96174758  .00008611  00000-0  36779-3 0  9994
2 67279  97.3916 259.3098 0012536 308.0515  51.9590 15.23045785 28507
SAKHACUBE-CHOLBON (RS18S)
1 67290U 25313AU  26185.15442629  .00012902  00000-0  51604-3 0  9996
2 67290  97.3926 259.9799 0007648 298.1379  61.9086 15.25197394 28563
LUCA-1 (RS90S)
1 67287U 25313AR  26184.91906274  .00010582  00000-0  42856-3 0  9997
2 67287  97.3926 259.6864 0007972 300.4333  59.6117 15.24828404 28523
